QIANFAN-65              
1 62795U 25016L   25354.80349698  .00000138  00000+0  19516-3 0  9995
2 62795  88.9766 102.2261 0012491 324.2292  35.8021 13.50986535 48332
QIANFAN-66              
1 62796U 25016M   25354.75825640  .00000135  00000+0  19083-3 0  9992
2 62796  88.9785 102.2025 0013532 319.0488  40.9646 13.50979318 48373
QIANFAN-67              
1 62797U 25016N   25354.76248397  .00000140  00000+0  19781-3 0  9993
2 62797  88.9776 102.2269 0013619 326.6910  33.3382 13.50983505 48347
QIANFAN-68              
1 62798U 25016P   25354.75416486  .00000138  00000+0  19570-3 0  9992
2 62798  88.9779 102.2732 0013639 324.7610  35.2638 13.50985908 48326
QIANFAN-69              
1 62799U 25016Q   25354.77064103  .00000128  00000+0  17901-3 0  9995
2 62799  88.9758 102.1391 0014404 325.7258  34.2962 13.50988601 48360
QIANFAN-70              
1 62800U 25016R   25354.78712069  .00000143  00000+0  20274-3 0  9994
2 62800  88.9779 102.2776 0013861 315.1523  44.8507 13.50979576 48327
QIANFAN-71              
1 62801U 25016S   25354.78292638  .00000099  00000+0  13473-3 0  9993
2 62801  88.9773 102.2570 0014379 329.5510  30.4804 13.50979083 48328
QIANFAN-72              
1 62802U 25016T   25354.79938472  .00000139  00000+0  19676-3 0  9994
2 62802  88.9763 102.2680 0017801 336.4868  23.5467 13.50986651 48312
